GLOBALSTAR M035         
1 25851U 99037A   25208.78036626 -.00000033  00000+0  11433-2 0  9994
2 25851  51.9984 324.4416 0013758  49.9485 108.3019 11.04538633100744
GLOBALSTAR M032         
1 25852U 99037B   25208.88491944 -.00000054  00000+0  41779-3 0  9994
2 25852  51.9939 146.5951 0011922 235.9714 123.9954 11.19062192139342
GLOBALSTAR M051         
1 25853U 99037C   25209.53568925 -.00000065  00000+0  16732-3 0  9995
2 25853  51.9811 301.1470 0000252 234.4473 125.6314 11.42204574137139
GLOBALSTAR M030         
1 25854U 99037D   25209.10137957 -.00000023  00000+0  11089-2 0  9999
2 25854  51.9877 105.6966 0003463 109.4077 250.7115 11.55111269154878
GLOBALSTAR M048         
1 25872U 99041A   25208.87164535 -.00000068  00000+0  64087-4 0  9996
2 25872  51.9336 239.3550 0013677 255.0097 276.4395 11.33858427129596
GLOBALSTAR M026         
1 25873U 99041B   25208.88436156 -.00000024  00000+0  14655-2 0  9995
2 25873  52.0016  81.7387 0002131   1.1505  80.9921 11.06845755152991
GLOBALSTAR M043         
1 25874U 99041C   25208.77971014 -.00000061  00000+0  21225-3 0  9994
2 25874  51.9434 348.8335 0013454  24.3517 124.1303 11.25694563127441
GLOBALSTAR M028         
1 25875U 99041D   25208.91437464 -.00000061  00000+0  25255-3 0  9994
2 25875  51.9629  71.6230 0063297 159.1601 201.1860 12.50584960195272
